[{"OBJECT_NAME":"STARLINK-31601","OBJECT_ID":"2024-046J","EPOCH":"2026-03-09T13:23:05.906400","MEAN_MOTION":15.30182139,"ECCENTRICITY":0.0001081,"INCLINATION":53.1607,"RA_OF_ASC_NODE":155.6443,"ARG_OF_PERICENTER":89.929,"MEAN_ANOMALY":270.1835,"EPHEMERIS_TYPE":0,"CLASSIFICATION_TYPE":"U","NORAD_CAT_ID":59209,"ELEMENT_SET_NO":999,"REV_AT_EPOCH":11303,"BSTAR":2.6407e-6,"MEAN_MOTION_DOT":-2.81e-6,"MEAN_MOTION_DDOT":0},{"OBJECT_NAME":"KSLV-II R\/B","OBJECT_ID":"2023-072H","EPOCH":"2026-03-09T20:13:26.441760","MEAN_MOTION":15.33109439,"ECCENTRICITY":0.00241884,"INCLINATION":97.4991,"RA_OF_ASC_NODE":274.152,"ARG_OF_PERICENTER":318.2938,"MEAN_ANOMALY":41.646,"EPHEMERIS_TYPE":0,"CLASSIFICATION_TYPE":"U","NORAD_CAT_ID":56750,"ELEMENT_SET_NO":999,"REV_AT_EPOCH":15516,"BSTAR":0.00028309532,"MEAN_MOTION_DOT":9.057e-5,"MEAN_MOTION_DDOT":0}]
